PANDORA
1 67395U 80229J   26057.99991898  .00000000  00000-0  37770-3 0    03
2 67395  97.8009  58.3973 0006599 121.8878 132.9207 14.87804761    04
